{
  "type": "FeatureCollection",
  "features": [
    {
      "type": "Feature",
      "properties": {
        "norad_id": 29268,
        "name": "ARIRANG-2 (KOMPSAT-2)",
        "group": "resource",
        "lat": -66.10417074394267,
        "lon": -156.48520542309606,
        "alt_km": 677.215562032944,
        "timestamp": "2025-12-23T11:34:47.838537+00:00",
        "meta_object_name": "ARIRANG-2 (KOMPSAT-2)",
        "meta_object_id": "2006-031A",
        "meta_epoch": "2025-12-22T23:28:55.259040",
        "meta_mean_motion": 14.64502354,
        "meta_eccentricity": 0.00131377,
        "meta_inclination": 97.8253,
        "meta_ra_of_asc_node": 184.9521,
        "meta_arg_of_pericenter": 273.9954,
        "meta_mean_anomaly": 242.6307,
        "meta_ephemeris_type": 0,
        "meta_classification_type": "U",
        "meta_norad_cat_id": 29268,
        "meta_element_set_no": 999,
        "meta_rev_at_epoch": 3568,
        "meta_bstar": 8.7222985e-05,
        "meta_mean_motion_dot": 4.18e-06,
        "meta_mean_motion_ddot": 0,
        "tle_line1": "1 29268U 06031A   25356.97841735  .00000418  00000+0  87223-4 0  9990",
        "tle_line2": "2 29268  97.8253 184.9521 0013137 273.9954 242.6307 14.64502354 35687"
      },
      "geometry": {
        "type": "Point",
        "coordinates": [
          -156.48520542309606,
          -66.10417074394267
        ]
      }
    },
    {
      "type": "Feature",
      "properties": {
        "norad_id": 29709,
        "name": "LAPAN-TUBSAT",
        "group": "resource",
        "lat": -34.381657780442225,
        "lon": -6.53003954402244,
        "alt_km": 615.5526747457716,
        "timestamp": "2025-12-23T11:34:47.838547+00:00",
        "meta_object_name": "LAPAN-TUBSAT",
        "meta_object_id": "2007-001A",
        "meta_epoch": "2025-12-22T22:48:17.349120",
        "meta_mean_motion": 14.85686783,
        "meta_eccentricity": 0.00133399,
        "meta_inclination": 98.1257,
        "meta_ra_of_asc_node": 347.3164,
        "meta_arg_of_pericenter": 43.989,
        "meta_mean_anomaly": 316.2384,
        "meta_ephemeris_type": 0,
        "meta_classification_type": "U",
        "meta_norad_cat_id": 29709,
        "meta_element_set_no": 999,
        "meta_rev_at_epoch": 2498,
        "meta_bstar": 0.00011866684,
        "meta_mean_motion_dot": 9.73e-06,
        "meta_mean_motion_ddot": 0,
        "tle_line1": "1 29709U 07001A   25356.95020080  .00000973  00000+0  11867-3 0  9994",
        "tle_line2": "2 29709  98.1257 347.3164 0013339  43.9890 316.2384 14.85686783 24987"
      },
      "geometry": {
        "type": "Point",
        "coordinates": [
          -6.53003954402244,
          -34.381657780442225
        ]
      }
    },
    {
      "type": "Feature",
      "properties": {
        "norad_id": 31113,
        "name": "HAIYANG-1B",
        "group": "resource",
        "lat": -75.21467254214683,
        "lon": 127.5871408192465,
        "alt_km": 799.0813528070576,
        "timestamp": "2025-12-23T11:34:47.838557+00:00",
        "meta_object_name": "HAIYANG-1B",
        "meta_object_id": "2007-010A",
        "meta_epoch": "2025-12-22T19:16:30.725760",
        "meta_mean_motion": 14.30968154,
        "meta_eccentricity": 0.00137274,
        "meta_inclination": 98.3326,
        "meta_ra_of_asc_node": 340.6659,
        "meta_arg_of_pericenter": 9.2481,
        "meta_mean_anomaly": 350.8953,
        "meta_ephemeris_type": 0,
        "meta_classification_type": "U",
        "meta_norad_cat_id": 31113,
        "meta_element_set_no": 999,
        "meta_rev_at_epoch": 97540,
        "meta_bstar": 4.7986357e-05,
        "meta_mean_motion_dot": 8.5e-07,
        "meta_mean_motion_ddot": 0,
        "tle_line1": "1 31113U 07010A   25356.80313340  .00000085  00000+0  47986-4 0  9990",
        "tle_line2": "2 31113  98.3326 340.6659 0013727   9.2481 350.8953 14.30968154975408"
      },
      "geometry": {
        "type": "Point",
        "coordinates": [
          127.5871408192465,
          -75.21467254214683
        ]
      }
    },
    {
      "type": "Feature",
      "properties": {
        "norad_id": 31598,
        "name": "COSMO-SKYMED 1",
        "group": "resource",
        "lat": -47.108582251351045,
        "lon": -168.46906517974793,
        "alt_km": 587.1834799163116,
        "timestamp": "2025-12-23T11:34:47.838566+00:00",
        "meta_object_name": "COSMO-SKYMED 1",
        "meta_object_id": "2007-023A",
        "meta_epoch": "2025-12-22T22:56:57.592032",
        "meta_mean_motion": 14.95840531,
        "meta_eccentricity": 0.00014525,
        "meta_inclination": 97.8839,
        "meta_ra_of_asc_node": 182.4229,
        "meta_arg_of_pericenter": 80.5183,
        "meta_mean_anomaly": 279.6202,
        "meta_ephemeris_type": 0,
        "meta_classification_type": "U",
        "meta_norad_cat_id": 31598,
        "meta_element_set_no": 999,
        "meta_rev_at_epoch": 343,
        "meta_bstar": 0.00032072969,
        "meta_mean_motion_dot": 3.524e-05,
        "meta_mean_motion_ddot": 0,
        "tle_line1": "1 31598U 07023A   25356.95622213  .00003524  00000+0  32073-3 0  9990",
        "tle_line2": "2 31598  97.8839 182.4229 0001452  80.5183 279.6202 14.95840531  3435"
      },
      "geometry": {
        "type": "Point",
        "coordinates": [
          -168.46906517974793,
          -47.108582251351045
        ]
      }
    },
    {
      "type": "Feature",
      "properties": {
        "norad_id": 31698,
        "name": "TERRASAR-X",
        "group": "resource",
        "lat": 30.15706252442815,
        "lon": -172.93576888049532,
        "alt_km": 506.32867803886984,
        "timestamp": "2025-12-23T11:34:47.838579+00:00",
        "meta_object_name": "TERRASAR-X",
        "meta_object_id": "2007-026A",
        "meta_epoch": "2025-12-22T11:12:42.874560",
        "meta_mean_motion": 15.19156937,
        "meta_eccentricity": 0.00019029,
        "meta_inclination": 97.4451,
        "meta_ra_of_asc_node": 1.7062,
        "meta_arg_of_pericenter": 89.1914,
        "meta_mean_anomaly": 270.9539,
        "meta_ephemeris_type": 0,
        "meta_classification_type": "U",
        "meta_norad_cat_id": 31698,
        "meta_element_set_no": 999,
        "meta_rev_at_epoch": 2639,
        "meta_bstar": 3.1918703e-05,
        "meta_mean_motion_dot": 6.03e-06,
        "meta_mean_motion_ddot": 0,
        "tle_line1": "1 31698U 07026A   25356.46716290  .00000603  00000+0  31919-4 0  9993",
        "tle_line2": "2 31698  97.4451   1.7062 0001902  89.1914 270.9539 15.19156937 26391"
      },
      "geometry": {
        "type": "Point",
        "coordinates": [
          -172.93576888049532,
          30.15706252442815
        ]
      }
    },
    {
      "type": "Feature",
      "properties": {
        "norad_id": 32060,
        "name": "WORLDVIEW-1 (WV-1)",
        "group": "resource",
        "lat": -4.750499848061907,
        "lon": 115.4249397565811,
        "alt_km": 495.4429915363362,
        "timestamp": "2025-12-23T11:34:47.838594+00:00",
        "meta_object_name": "WORLDVIEW-1 (WV-1)",
        "meta_object_id": "2007-041A",
        "meta_epoch": "2025-12-22T19:50:30.984864",
        "meta_mean_motion": 15.23913987,
        "meta_eccentricity": 0.00033156,
        "meta_inclination": 97.3828,
        "meta_ra_of_asc_node": 114.162,
        "meta_arg_of_pericenter": 3.515,
        "meta_mean_anomaly": 356.611,
        "meta_ephemeris_type": 0,
        "meta_classification_type": "U",
        "meta_norad_cat_id": 32060,
        "meta_element_set_no": 999,
        "meta_rev_at_epoch": 1601,
        "meta_bstar": 0.0003325578,
        "meta_mean_motion_dot": 7.967e-05,
        "meta_mean_motion_ddot": 0,
        "tle_line1": "1 32060U 07041A   25356.82674751  .00007967  00000+0  33256-3 0  9994",
        "tle_line2": "2 32060  97.3828 114.1620 0003315   3.5150 356.6110 15.23913987 16019"
      },
      "geometry": {
        "type": "Point",
        "coordinates": [
          115.4249397565811,
          -4.750499848061907
        ]
      }
    },
    {
      "type": "Feature",
      "properties": {
        "norad_id": 32289,
        "name": "YAOGAN-3",
        "group": "resource",
        "lat": -65.80593721075725,
        "lon": 41.856112655231136,
        "alt_km": 606.1529032231128,
        "timestamp": "2025-12-23T11:34:47.838610+00:00",
        "meta_object_name": "YAOGAN-3",
        "meta_object_id": "2007-055A",
        "meta_epoch": "2025-12-22T22:59:08.793888",
        "meta_mean_motion": 14.89902608,
        "meta_eccentricity": 0.00011433,
        "meta_inclination": 97.8348,
        "meta_ra_of_asc_node": 23.4895,
        "meta_arg_of_pericenter": 83.1705,
        "meta_mean_anomaly": 276.9643,
        "meta_ephemeris_type": 0,
        "meta_classification_type": "U",
        "meta_norad_cat_id": 32289,
        "meta_element_set_no": 999,
        "meta_rev_at_epoch": 97961,
        "meta_bstar": 0.000269944,
        "meta_mean_motion_dot": 2.541e-05,
        "meta_mean_motion_ddot": 0,
        "tle_line1": "1 32289U 07055A   25356.95774067  .00002541  00000+0  26994-3 0  9991",
        "tle_line2": "2 32289  97.8348  23.4895 0001143  83.1705 276.9643 14.89902608979615"
      },
      "geometry": {
        "type": "Point",
        "coordinates": [
          41.856112655231136,
          -65.80593721075725
        ]
      }
    }
  ]
}